[
    {
        "Altitude(m)": 617710.6705880165,
        "Argument of Periapsis(deg)": 0.0,
        "Eccentricity": 0.0,
        "Inclination(deg)": 60.0,
        "Latitude(deg)": -41.10274386779655,
        "Longitude(deg)": -0.03324861709350464,
        "Mean Anomaly(deg)": -49.09089999999994,
        "RAAN(deg)": 130.0,
        "Satellite Name": "Test1 591",
        "Satellite Number": 591,
        "Semi-Major Axis(m)": 6980739.136638005,
        "Time(s)": 0
    },
    {
        "Altitude(m)": 617517.9685586479,
        "Argument of Periapsis(deg)": 0.00010418945913296404,
        "Eccentricity": 0.0,
        "Inclination(deg)": 60.0,
        "Latitude(deg)": -40.636949612663855,
        "Longitude(deg)": 0.46354362643414065,
        "Mean Anomaly(deg)": -48.470793854538094,
        "RAAN(deg)": 129.99957995086024,
        "Satellite Name": "Test1 591",
        "Satellite Number": 591,
        "Semi-Major Axis(m)": 6980739.136638005,
        "Time(s)": 10
    }
]